{
  "type": "FeatureCollection",
  "features": [
    {
      "type": "Feature",
      "properties": {
        "norad_id": 40796,
        "name": "COSMOS 2251 DEB",
        "group": "cosmos-2251-debris",
        "lat": 8.444159365589242,
        "lon": 120.79381916419636,
        "alt_km": 641.9729629812955,
        "timestamp": "2025-12-24T18:55:56.470300+00:00",
        "meta_object_name": "COSMOS 2251 DEB",
        "meta_object_id": "1993-036BVZ",
        "meta_epoch": "2025-12-24T01:52:38.367840",
        "meta_mean_motion": 14.81857353,
        "meta_eccentricity": 0.00560188,
        "meta_inclination": 74.0132,
        "meta_ra_of_asc_node": 119.7598,
        "meta_arg_of_pericenter": 254.4442,
        "meta_mean_anomaly": 284.484,
        "meta_ephemeris_type": 0,
        "meta_classification_type": "U",
        "meta_norad_cat_id": 40796,
        "meta_element_set_no": 999,
        "meta_rev_at_epoch": 76326,
        "meta_bstar": 0.0010029419,
        "meta_mean_motion_dot": 8.123e-05,
        "meta_mean_motion_ddot": 0,
        "tle_line1": "1 40796U 93036BVZ 25358.07822185  .00008123  00000+0  10029-2 0  9990",
        "tle_line2": "2 40796  74.0132 119.7598 0056018 254.4442 284.4840 14.81857353763269"
      },
      "geometry": {
        "type": "Point",
        "coordinates": [
          120.79381916419636,
          8.444159365589242
        ]
      }
    },
    {
      "type": "Feature",
      "properties": {
        "norad_id": 40797,
        "name": "COSMOS 2251 DEB",
        "group": "cosmos-2251-debris",
        "lat": -70.04348009720874,
        "lon": 17.611459491153447,
        "alt_km": 510.9370372471785,
        "timestamp": "2025-12-24T18:55:56.470310+00:00",
        "meta_object_name": "COSMOS 2251 DEB",
        "meta_object_id": "1993-036BWA",
        "meta_epoch": "2025-12-21T22:58:09.286752",
        "meta_mean_motion": 15.11502821,
        "meta_eccentricity": 0.00722284,
        "meta_inclination": 73.9213,
        "meta_ra_of_asc_node": 76.1019,
        "meta_arg_of_pericenter": 345.6422,
        "meta_mean_anomaly": 14.2715,
        "meta_ephemeris_type": 0,
        "meta_classification_type": "U",
        "meta_norad_cat_id": 40797,
        "meta_element_set_no": 999,
        "meta_rev_at_epoch": 64783,
        "meta_bstar": 0.00074206778,
        "meta_mean_motion_dot": 0.00013364,
        "meta_mean_motion_ddot": 0,
        "tle_line1": "1 40797U 93036BWA 25355.95705193  .00013364  00000+0  74207-3 0  9996",
        "tle_line2": "2 40797  73.9213  76.1019 0072228 345.6422  14.2715 15.11502821647839"
      },
      "geometry": {
        "type": "Point",
        "coordinates": [
          17.611459491153447,
          -70.04348009720874
        ]
      }
    },
    {
      "type": "Feature",
      "properties": {
        "norad_id": 40799,
        "name": "COSMOS 2251 DEB",
        "group": "cosmos-2251-debris",
        "lat": 11.78124768252697,
        "lon": 77.28020207291465,
        "alt_km": 534.7292289127072,
        "timestamp": "2025-12-24T18:55:56.470320+00:00",
        "meta_object_name": "COSMOS 2251 DEB",
        "meta_object_id": "1993-036BWC",
        "meta_epoch": "2025-12-22T21:57:46.533888",
        "meta_mean_motion": 14.96749899,
        "meta_eccentricity": 0.0119411,
        "meta_inclination": 73.9268,
        "meta_ra_of_asc_node": 77.6461,
        "meta_arg_of_pericenter": 317.3719,
        "meta_mean_anomaly": 41.8243,
        "meta_ephemeris_type": 0,
        "meta_classification_type": "U",
        "meta_norad_cat_id": 40799,
        "meta_element_set_no": 999,
        "meta_rev_at_epoch": 50129,
        "meta_bstar": 0.0004483,
        "meta_mean_motion_dot": 5.887e-05,
        "meta_mean_motion_ddot": 0,
        "tle_line1": "1 40799U 93036BWC 25356.91512192  .00005887  00000+0  44830-3 0  9990",
        "tle_line2": "2 40799  73.9268  77.6461 0119411 317.3719  41.8243 14.96749899501290"
      },
      "geometry": {
        "type": "Point",
        "coordinates": [
          77.28020207291465,
          11.78124768252697
        ]
      }
    },
    {
      "type": "Feature",
      "properties": {
        "norad_id": 40802,
        "name": "COSMOS 2251 DEB",
        "group": "cosmos-2251-debris",
        "lat": -44.51060981132715,
        "lon": 113.03390806944313,
        "alt_km": 640.6623700059927,
        "timestamp": "2025-12-24T18:55:56.470330+00:00",
        "meta_object_name": "COSMOS 2251 DEB",
        "meta_object_id": "1993-036BWF",
        "meta_epoch": "2025-12-23T15:31:23.351520",
        "meta_mean_motion": 14.77722867,
        "meta_eccentricity": 0.00628376,
        "meta_inclination": 74.0411,
        "meta_ra_of_asc_node": 131.6125,
        "meta_arg_of_pericenter": 228.2814,
        "meta_mean_anomaly": 131.2977,
        "meta_ephemeris_type": 0,
        "meta_classification_type": "U",
        "meta_norad_cat_id": 40802,
        "meta_element_set_no": 999,
        "meta_rev_at_epoch": 64570,
        "meta_bstar": 0.00086100359,
        "meta_mean_motion_dot": 6.349e-05,
        "meta_mean_motion_ddot": 0,
        "tle_line1": "1 40802U 93036BWF 25357.64679805  .00006349  00000+0  86100-3 0  9991",
        "tle_line2": "2 40802  74.0411 131.6125 0062837 228.2814 131.2977 14.77722867645708"
      },
      "geometry": {
        "type": "Point",
        "coordinates": [
          113.03390806944313,
          -44.51060981132715
        ]
      }
    },
    {
      "type": "Feature",
      "properties": {
        "norad_id": 40803,
        "name": "COSMOS 2251 DEB",
        "group": "cosmos-2251-debris",
        "lat": 61.00293503952031,
        "lon": 178.03225446114286,
        "alt_km": 728.7225124526149,
        "timestamp": "2025-12-24T18:55:56.470340+00:00",
        "meta_object_name": "COSMOS 2251 DEB",
        "meta_object_id": "1993-036BWG",
        "meta_epoch": "2025-12-21T09:22:13.076832",
        "meta_mean_motion": 14.51837554,
        "meta_eccentricity": 0.00343739,
        "meta_inclination": 74.0142,
        "meta_ra_of_asc_node": 35.5847,
        "meta_arg_of_pericenter": 250.91,
        "meta_mean_anomaly": 108.8338,
        "meta_ephemeris_type": 0,
        "meta_classification_type": "U",
        "meta_norad_cat_id": 40803,
        "meta_element_set_no": 999,
        "meta_rev_at_epoch": 58878,
        "meta_bstar": 0.0002337407,
        "meta_mean_motion_dot": 9.19e-06,
        "meta_mean_motion_ddot": 0,
        "tle_line1": "1 40803U 93036BWG 25355.39042913  .00000919  00000+0  23374-3 0  9997",
        "tle_line2": "2 40803  74.0142  35.5847 0034373 250.9100 108.8338 14.51837554588784"
      },
      "geometry": {
        "type": "Point",
        "coordinates": [
          178.03225446114286,
          61.00293503952031
        ]
      }
    },
    {
      "type": "Feature",
      "properties": {
        "norad_id": 40808,
        "name": "COSMOS 2251 DEB",
        "group": "cosmos-2251-debris",
        "lat": -7.733793597153339,
        "lon": 119.98440599697558,
        "alt_km": 677.8421361947021,
        "timestamp": "2025-12-24T18:55:56.470350+00:00",
        "meta_object_name": "COSMOS 2251 DEB",
        "meta_object_id": "1993-036BWM",
        "meta_epoch": "2025-12-21T15:48:05.753088",
        "meta_mean_motion": 14.67620191,
        "meta_eccentricity": 0.00084034,
        "meta_inclination": 74.0423,
        "meta_ra_of_asc_node": 128.2531,
        "meta_arg_of_pericenter": 163.7615,
        "meta_mean_anomaly": 215.4081,
        "meta_ephemeris_type": 0,
        "meta_classification_type": "U",
        "meta_norad_cat_id": 40808,
        "meta_element_set_no": 999,
        "meta_rev_at_epoch": 63750,
        "meta_bstar": 0.0013228625,
        "meta_mean_motion_dot": 7.499e-05,
        "meta_mean_motion_ddot": 0,
        "tle_line1": "1 40808U 93036BWM 25355.65839992  .00007499  00000+0  13229-2 0  9999",
        "tle_line2": "2 40808  74.0423 128.2531 0008403 163.7615 215.4081 14.67620191637507"
      },
      "geometry": {
        "type": "Point",
        "coordinates": [
          119.98440599697558,
          -7.733793597153339
        ]
      }
    },
    {
      "type": "Feature",
      "properties": {
        "norad_id": 40810,
        "name": "COSMOS 2251 DEB",
        "group": "cosmos-2251-debris",
        "lat": -62.550446476579516,
        "lon": -94.76860939691812,
        "alt_km": 694.858235105642,
        "timestamp": "2025-12-24T18:55:56.470360+00:00",
        "meta_object_name": "COSMOS 2251 DEB",
        "meta_object_id": "1993-036BWP",
        "meta_epoch": "2025-12-23T03:56:49.945344",
        "meta_mean_motion": 14.58782513,
        "meta_eccentricity": 0.00180471,
        "meta_inclination": 74.0361,
        "meta_ra_of_asc_node": 54.8832,
        "meta_arg_of_pericenter": 205.863,
        "meta_mean_anomaly": 154.1635,
        "meta_ephemeris_type": 0,
        "meta_classification_type": "U",
        "meta_norad_cat_id": 40810,
        "meta_element_set_no": 999,
        "meta_rev_at_epoch": 61835,
        "meta_bstar": 0.0007215593,
        "meta_mean_motion_dot": 3.351e-05,
        "meta_mean_motion_ddot": 0,
        "tle_line1": "1 40810U 93036BWP 25357.16446696  .00003351  00000+0  72156-3 0  9993",
        "tle_line2": "2 40810  74.0361  54.8832 0018047 205.8630 154.1635 14.58782513618352"
      },
      "geometry": {
        "type": "Point",
        "coordinates": [
          -94.76860939691812,
          -62.550446476579516
        ]
      }
    }
  ]
}